{
  "type": "FeatureCollection",
  "features": [
    {
      "type": "Feature",
      "properties": {
        "norad_id": 30884,
        "name": "FENGYUN 1C DEB",
        "group": "fengyun-1c-debris",
        "lat": -66.0555614424295,
        "lon": 155.43079697489972,
        "alt_km": 622.5264859313393,
        "timestamp": "2025-12-26T21:25:53.289633+00:00",
        "meta_object_name": "FENGYUN 1C DEB",
        "meta_object_id": "1999-025AXW",
        "meta_epoch": "2025-12-24T22:40:58.134720",
        "meta_mean_motion": 14.73780454,
        "meta_eccentricity": 0.0065701,
        "meta_inclination": 98.8915,
        "meta_ra_of_asc_node": 353.9393,
        "meta_arg_of_pericenter": 297.3751,
        "meta_mean_anomaly": 62.0779,
        "meta_ephemeris_type": 0,
        "meta_classification_type": "U",
        "meta_norad_cat_id": 30884,
        "meta_element_set_no": 999,
        "meta_rev_at_epoch": 98841,
        "meta_bstar": 0.0020771,
        "meta_mean_motion_dot": 0.00014021,
        "meta_mean_motion_ddot": 0,
        "tle_line1": "1 30884U 99025AXW 25358.94511730  .00014021  00000+0  20771-2 0  9997",
        "tle_line2": "2 30884  98.8915 353.9393 0065701 297.3751  62.0779 14.73780454988417"
      },
      "geometry": {
        "type": "Point",
        "coordinates": [
          155.43079697489972,
          -66.0555614424295
        ]
      }
    },
    {
      "type": "Feature",
      "properties": {
        "norad_id": 30885,
        "name": "FENGYUN 1C DEB",
        "group": "fengyun-1c-debris",
        "lat": 34.77954417435344,
        "lon": 28.7534099820545,
        "alt_km": 692.2046160765631,
        "timestamp": "2025-12-26T21:25:53.289643+00:00",
        "meta_object_name": "FENGYUN 1C DEB",
        "meta_object_id": "1999-025AXX",
        "meta_epoch": "2025-12-26T12:37:13.914336",
        "meta_mean_motion": 14.49673575,
        "meta_eccentricity": 0.00531176,
        "meta_inclination": 99.0271,
        "meta_ra_of_asc_node": 202.0219,
        "meta_arg_of_pericenter": 177.4518,
        "meta_mean_anomaly": 212.642,
        "meta_ephemeris_type": 0,
        "meta_classification_type": "U",
        "meta_norad_cat_id": 30885,
        "meta_element_set_no": 999,
        "meta_rev_at_epoch": 97177,
        "meta_bstar": 0.0023326628,
        "meta_mean_motion_dot": 9.094e-05,
        "meta_mean_motion_ddot": 0,
        "tle_line1": "1 30885U 99025AXX 25360.52585549  .00009094  00000+0  23327-2 0  9998",
        "tle_line2": "2 30885  99.0271 202.0219 0053117 177.4518 212.6420 14.49673575971779"
      },
      "geometry": {
        "type": "Point",
        "coordinates": [
          28.7534099820545,
          34.77954417435344
        ]
      }
    },
    {
      "type": "Feature",
      "properties": {
        "norad_id": 30886,
        "name": "FENGYUN 1C DEB",
        "group": "fengyun-1c-debris",
        "lat": 60.37989774281106,
        "lon": 91.08921711637915,
        "alt_km": 823.6384314950801,
        "timestamp": "2025-12-26T21:25:53.289653+00:00",
        "meta_object_name": "FENGYUN 1C DEB",
        "meta_object_id": "1999-025AXY",
        "meta_epoch": "2025-12-26T09:03:56.932992",
        "meta_mean_motion": 14.2288687,
        "meta_eccentricity": 0.0036368,
        "meta_inclination": 99.2088,
        "meta_ra_of_asc_node": 253.9719,
        "meta_arg_of_pericenter": 357.2804,
        "meta_mean_anomaly": 2.817,
        "meta_ephemeris_type": 0,
        "meta_classification_type": "U",
        "meta_norad_cat_id": 30886,
        "meta_element_set_no": 999,
        "meta_rev_at_epoch": 96590,
        "meta_bstar": 0.0018141242,
        "meta_mean_motion_dot": 4.058e-05,
        "meta_mean_motion_ddot": 0,
        "tle_line1": "1 30886U 99025AXY 25360.37774228  .00004058  00000+0  18141-2 0  9999",
        "tle_line2": "2 30886  99.2088 253.9719 0036368 357.2804   2.8170 14.22886870965907"
      },
      "geometry": {
        "type": "Point",
        "coordinates": [
          91.08921711637915,
          60.37989774281106
        ]
      }
    },
    {
      "type": "Feature",
      "properties": {
        "norad_id": 30887,
        "name": "FENGYUN 1C DEB",
        "group": "fengyun-1c-debris",
        "lat": 56.187346381355106,
        "lon": -110.73863493568396,
        "alt_km": 832.459467032736,
        "timestamp": "2025-12-26T21:25:53.289664+00:00",
        "meta_object_name": "FENGYUN 1C DEB",
        "meta_object_id": "1999-025AXZ",
        "meta_epoch": "2025-12-26T09:12:23.030496",
        "meta_mean_motion": 14.44910575,
        "meta_eccentricity": 0.02636309,
        "meta_inclination": 98.367,
        "meta_ra_of_asc_node": 56.0652,
        "meta_arg_of_pericenter": 246.2468,
        "meta_mean_anomaly": 111.0872,
        "meta_ephemeris_type": 0,
        "meta_classification_type": "U",
        "meta_norad_cat_id": 30887,
        "meta_element_set_no": 999,
        "meta_rev_at_epoch": 98325,
        "meta_bstar": 0.00075229848,
        "meta_mean_motion_dot": 3.965e-05,
        "meta_mean_motion_ddot": 0,
        "tle_line1": "1 30887U 99025AXZ 25360.38359989  .00003965  00000+0  75230-3 0  9993",
        "tle_line2": "2 30887  98.3670  56.0652 0263630 246.2468 111.0872 14.44910575983254"
      },
      "geometry": {
        "type": "Point",
        "coordinates": [
          -110.73863493568396,
          56.187346381355106
        ]
      }
    },
    {
      "type": "Feature",
      "properties": {
        "norad_id": 30888,
        "name": "FENGYUN 1C DEB",
        "group": "fengyun-1c-debris",
        "lat": -70.6787025001834,
        "lon": 11.089513934726908,
        "alt_km": 650.5949446438262,
        "timestamp": "2025-12-26T21:25:53.289674+00:00",
        "meta_object_name": "FENGYUN 1C DEB",
        "meta_object_id": "1999-025AYA",
        "meta_epoch": "2025-12-26T04:04:59.817792",
        "meta_mean_motion": 14.94175077,
        "meta_eccentricity": 0.00839811,
        "meta_inclination": 99.4849,
        "meta_ra_of_asc_node": 341.7386,
        "meta_arg_of_pericenter": 108.8618,
        "meta_mean_anomaly": 252.1727,
        "meta_ephemeris_type": 0,
        "meta_classification_type": "U",
        "meta_norad_cat_id": 30888,
        "meta_element_set_no": 999,
        "meta_rev_at_epoch": 117,
        "meta_bstar": 0.0010689295,
        "meta_mean_motion_dot": 0.00012205,
        "meta_mean_motion_ddot": 0,
        "tle_line1": "1 30888U 99025AYA 25360.17013678  .00012205  00000+0  10689-2 0  9996",
        "tle_line2": "2 30888  99.4849 341.7386 0083981 108.8618 252.1727 14.94175077  1175"
      },
      "geometry": {
        "type": "Point",
        "coordinates": [
          11.089513934726908,
          -70.6787025001834
        ]
      }
    },
    {
      "type": "Feature",
      "properties": {
        "norad_id": 30891,
        "name": "FENGYUN 1C DEB",
        "group": "fengyun-1c-debris",
        "lat": 37.2122337161927,
        "lon": 41.341642592994596,
        "alt_km": 884.5252940813043,
        "timestamp": "2025-12-26T21:25:53.289684+00:00",
        "meta_object_name": "FENGYUN 1C DEB",
        "meta_object_id": "1999-025AYD",
        "meta_epoch": "2025-12-26T02:35:48.252768",
        "meta_mean_motion": 14.05899439,
        "meta_eccentricity": 0.00559138,
        "meta_inclination": 98.7831,
        "meta_ra_of_asc_node": 47.323,
        "meta_arg_of_pericenter": 150.2644,
        "meta_mean_anomaly": 238.3959,
        "meta_ephemeris_type": 0,
        "meta_classification_type": "U",
        "meta_norad_cat_id": 30891,
        "meta_element_set_no": 999,
        "meta_rev_at_epoch": 96170,
        "meta_bstar": 0.0005613859,
        "meta_mean_motion_dot": 8.89e-06,
        "meta_mean_motion_ddot": 0,
        "tle_line1": "1 30891U 99025AYD 25360.10819737  .00000889  00000+0  56139-3 0  9999",
        "tle_line2": "2 30891  98.7831  47.3230 0055913 150.2644 238.3959 14.05899439961707"
      },
      "geometry": {
        "type": "Point",
        "coordinates": [
          41.341642592994596,
          37.2122337161927
        ]
      }
    },
    {
      "type": "Feature",
      "properties": {
        "norad_id": 30892,
        "name": "FENGYUN 1C DEB",
        "group": "fengyun-1c-debris",
        "lat": -72.46545480145421,
        "lon": 92.70037503141249,
        "alt_km": 843.424121290881,
        "timestamp": "2025-12-26T21:25:53.289694+00:00",
        "meta_object_name": "FENGYUN 1C DEB",
        "meta_object_id": "1999-025AYE",
        "meta_epoch": "2025-12-13T14:04:34.549536",
        "meta_mean_motion": 14.18924802,
        "meta_eccentricity": 0.00379168,
        "meta_inclination": 99.663,
        "meta_ra_of_asc_node": 290.842,
        "meta_arg_of_pericenter": 186.6804,
        "meta_mean_anomaly": 173.3868,
        "meta_ephemeris_type": 0,
        "meta_classification_type": "U",
        "meta_norad_cat_id": 30892,
        "meta_element_set_no": 999,
        "meta_rev_at_epoch": 64315,
        "meta_bstar": 0.00057005886,
        "meta_mean_motion_dot": 1.145e-05,
        "meta_mean_motion_ddot": 0,
        "tle_line1": "1 30892U 99025AYE 25347.58651099  .00001145  00000+0  57006-3 0  9992",
        "tle_line2": "2 30892  99.6630 290.8420 0037916 186.6804 173.3868 14.18924802643155"
      },
      "geometry": {
        "type": "Point",
        "coordinates": [
          92.70037503141249,
          -72.46545480145421
        ]
      }
    }
  ]
}